{
  "type": "FeatureCollection",
  "features": [
    {
      "type": "Feature",
      "properties": {
        "norad_id": 59600,
        "name": "GSAT0227 (GALILEO 30)",
        "group": "gnss",
        "lat": -2.9675423215672025,
        "lon": 104.06290006642094,
        "alt_km": 23227.19817656883,
        "timestamp": "2025-12-17T17:50:19.494679+00:00",
        "meta_object_name": "GSAT0227 (GALILEO 30)",
        "meta_object_id": "2024-079C",
        "meta_epoch": "2025-12-15T23:44:48.318432",
        "meta_mean_motion": 1.70474874,
        "meta_eccentricity": 0.00030998,
        "meta_inclination": 54.9987,
        "meta_ra_of_asc_node": 106.2033,
        "meta_arg_of_pericenter": 115.4904,
        "meta_mean_anomaly": 244.5024,
        "meta_ephemeris_type": 0,
        "meta_classification_type": "U",
        "meta_norad_cat_id": 59600,
        "meta_element_set_no": 999,
        "meta_rev_at_epoch": 1024,
        "meta_bstar": 0,
        "meta_mean_motion_dot": -9e-08,
        "meta_mean_motion_ddot": 0,
        "tle_line1": "1 59600U 24079C   25349.98944813 -.00000009  00000+0  00000+0 0  9999",
        "tle_line2": "2 59600  54.9987 106.2033 0003099 115.4904 244.5024  1.70474874 10244"
      },
      "geometry": {
        "type": "Point",
        "coordinates": [
          104.06290006642094,
          -2.9675423215672025
        ]
      }
    },
    {
      "type": "Feature",
      "properties": {
        "norad_id": 61182,
        "name": "GSAT0232 (GALILEO 32)",
        "group": "gnss",
        "lat": -8.869961003925747,
        "lon": 52.52072435732833,
        "alt_km": 23218.370879804126,
        "timestamp": "2025-12-17T17:50:19.494692+00:00",
        "meta_object_name": "GSAT0232 (GALILEO 32)",
        "meta_object_id": "2024-167A",
        "meta_epoch": "2025-12-15T09:09:10.050912",
        "meta_mean_motion": 1.70473627,
        "meta_eccentricity": 0.00018812,
        "meta_inclination": 55.2399,
        "meta_ra_of_asc_node": 226.3583,
        "meta_arg_of_pericenter": 210.2547,
        "meta_mean_anomaly": 331.0661,
        "meta_ephemeris_type": 0,
        "meta_classification_type": "U",
        "meta_norad_cat_id": 61182,
        "meta_element_set_no": 999,
        "meta_rev_at_epoch": 774,
        "meta_bstar": 0,
        "meta_mean_motion_dot": 4.1e-07,
        "meta_mean_motion_ddot": 0,
        "tle_line1": "1 61182U 24167A   25349.38136633  .00000041  00000+0  00000+0 0  9997",
        "tle_line2": "2 61182  55.2399 226.3583 0001881 210.2547 331.0661  1.70473627  7746"
      },
      "geometry": {
        "type": "Point",
        "coordinates": [
          52.52072435732833,
          -8.869961003925747
        ]
      }
    },
    {
      "type": "Feature",
      "properties": {
        "norad_id": 61183,
        "name": "GSAT0226 (GALILEO 31)",
        "group": "gnss",
        "lat": -43.27888050268377,
        "lon": -174.49054773332333,
        "alt_km": 23229.721347100043,
        "timestamp": "2025-12-17T17:50:19.494703+00:00",
        "meta_object_name": "GSAT0226 (GALILEO 31)",
        "meta_object_id": "2024-167B",
        "meta_epoch": "2025-12-12T20:26:08.685024",
        "meta_mean_motion": 1.70473602,
        "meta_eccentricity": 8.42e-05,
        "meta_inclination": 55.2391,
        "meta_ra_of_asc_node": 226.433,
        "meta_arg_of_pericenter": 113.0334,
        "meta_mean_anomaly": 68.3038,
        "meta_ephemeris_type": 0,
        "meta_classification_type": "U",
        "meta_norad_cat_id": 61183,
        "meta_element_set_no": 999,
        "meta_rev_at_epoch": 767,
        "meta_bstar": 0,
        "meta_mean_motion_dot": 1.9e-07,
        "meta_mean_motion_ddot": 0,
        "tle_line1": "1 61183U 24167B   25346.85148941  .00000019  00000+0  00000+0 0  9997",
        "tle_line2": "2 61183  55.2391 226.4330 0000842 113.0334  68.3038  1.70473602  7673"
      },
      "geometry": {
        "type": "Point",
        "coordinates": [
          -174.49054773332333,
          -43.27888050268377
        ]
      }
    },
    {
      "type": "Feature",
      "properties": {
        "norad_id": 61186,
        "name": "BEIDOU-3 M25 (C47)",
        "group": "gnss",
        "lat": -23.624471195396154,
        "lon": 146.6049054949586,
        "alt_km": 21531.085855131823,
        "timestamp": "2025-12-17T17:50:19.494716+00:00",
        "meta_object_name": "BEIDOU-3 M25 (C47)",
        "meta_object_id": "2024-168B",
        "meta_epoch": "2025-12-16T21:28:07.627872",
        "meta_mean_motion": 1.86230288,
        "meta_eccentricity": 0.00054374,
        "meta_inclination": 54.6383,
        "meta_ra_of_asc_node": 308.576,
        "meta_arg_of_pericenter": 298.7489,
        "meta_mean_anomaly": 61.643,
        "meta_ephemeris_type": 0,
        "meta_classification_type": "U",
        "meta_norad_cat_id": 61186,
        "meta_element_set_no": 999,
        "meta_rev_at_epoch": 839,
        "meta_bstar": 0,
        "meta_mean_motion_dot": -9.4e-07,
        "meta_mean_motion_ddot": 0,
        "tle_line1": "1 61186U 24168B   25350.89453273 -.00000094  00000+0  00000+0 0  9991",
        "tle_line2": "2 61186  54.6383 308.5760 0005437 298.7489  61.6430  1.86230288  8396"
      },
      "geometry": {
        "type": "Point",
        "coordinates": [
          146.6049054949586,
          -23.624471195396154
        ]
      }
    },
    {
      "type": "Feature",
      "properties": {
        "norad_id": 61187,
        "name": "BEIDOU-3 M27 (C49)",
        "group": "gnss",
        "lat": -12.671646293958784,
        "lon": -60.6752057895384,
        "alt_km": 21523.058206506998,
        "timestamp": "2025-12-17T17:50:19.494730+00:00",
        "meta_object_name": "BEIDOU-3 M27 (C49)",
        "meta_object_id": "2024-168C",
        "meta_epoch": "2025-12-17T05:27:07.832736",
        "meta_mean_motion": 1.86230439,
        "meta_eccentricity": 0.00024902,
        "meta_inclination": 54.6334,
        "meta_ra_of_asc_node": 308.5482,
        "meta_arg_of_pericenter": 338.8897,
        "meta_mean_anomaly": 19.4657,
        "meta_ephemeris_type": 0,
        "meta_classification_type": "U",
        "meta_norad_cat_id": 61187,
        "meta_element_set_no": 999,
        "meta_rev_at_epoch": 586,
        "meta_bstar": 0,
        "meta_mean_motion_dot": -9.2e-07,
        "meta_mean_motion_ddot": 0,
        "tle_line1": "1 61187U 24168C   25351.22717399 -.00000092  00000+0  00000+0 0  9990",
        "tle_line2": "2 61187  54.6334 308.5482 0002490 338.8897  19.4657  1.86230439  5868"
      },
      "geometry": {
        "type": "Point",
        "coordinates": [
          -60.6752057895384,
          -12.671646293958784
        ]
      }
    },
    {
      "type": "Feature",
      "properties": {
        "norad_id": 62339,
        "name": "GPS BIII-7  (PRN 01)",
        "group": "gnss",
        "lat": -54.76517455921068,
        "lon": -102.6344196820308,
        "alt_km": 20177.423730204642,
        "timestamp": "2025-12-17T17:50:19.494741+00:00",
        "meta_object_name": "GPS BIII-7  (PRN 01)",
        "meta_object_id": "2024-242A",
        "meta_epoch": "2025-12-16T08:50:11.332608",
        "meta_mean_motion": 2.00568131,
        "meta_eccentricity": 0.00124404,
        "meta_inclination": 54.9226,
        "meta_ra_of_asc_node": 341.593,
        "meta_arg_of_pericenter": 345.4157,
        "meta_mean_anomaly": 15.1615,
        "meta_ephemeris_type": 0,
        "meta_classification_type": "U",
        "meta_norad_cat_id": 62339,
        "meta_element_set_no": 999,
        "meta_rev_at_epoch": 759,
        "meta_bstar": 0,
        "meta_mean_motion_dot": -9e-07,
        "meta_mean_motion_ddot": 0,
        "tle_line1": "1 62339U 24242A   25350.36818672 -.00000090  00000+0  00000+0 0  9991",
        "tle_line2": "2 62339  54.9226 341.5930 0012440 345.4157  15.1615  2.00568131  7594"
      },
      "geometry": {
        "type": "Point",
        "coordinates": [
          -102.6344196820308,
          -54.76517455921068
        ]
      }
    },
    {
      "type": "Feature",
      "properties": {
        "norad_id": 62850,
        "name": "NVS-02 (IRNSS-1K)",
        "group": "gnss",
        "lat": -4.099349571068929,
        "lon": 156.6200742595497,
        "alt_km": 32045.090728198124,
        "timestamp": "2025-12-17T17:50:19.494754+00:00",
        "meta_object_name": "NVS-02 (IRNSS-1K)",
        "meta_object_id": "2025-020A",
        "meta_epoch": "2025-12-17T03:26:28.667904",
        "meta_mean_motion": 2.17598656,
        "meta_eccentricity": 0.73474388,
        "meta_inclination": 20.9719,
        "meta_ra_of_asc_node": 326.0652,
        "meta_arg_of_pericenter": 29.0913,
        "meta_mean_anomaly": 356.91,
        "meta_ephemeris_type": 0,
        "meta_classification_type": "U",
        "meta_norad_cat_id": 62850,
        "meta_element_set_no": 999,
        "meta_rev_at_epoch": 701,
        "meta_bstar": 0.00024546704,
        "meta_mean_motion_dot": 4.77e-06,
        "meta_mean_motion_ddot": 0,
        "tle_line1": "1 62850U 25020A   25351.14338736  .00000477  00000+0  24547-3 0  9993",
        "tle_line2": "2 62850  20.9719 326.0652 7347438  29.0913 356.9100  2.17598656  7016"
      },
      "geometry": {
        "type": "Point",
        "coordinates": [
          156.6200742595497,
          -4.099349571068929
        ]
      }
    }
  ]
}